LAOSAT 1                
1 41034U 15067A   26188.74080315 -.00000327  00000+0  00000+0 0  9995
2 41034   0.0409 198.2976 0002427 219.6589 262.9574  1.00272481 39062
TELSTAR 12V             
1 41036U 15068A   26188.71237491 -.00000104  00000+0  00000+0 0  9997
2 41036   0.0185  70.6764 0002243  35.3256  61.1281  1.00270650 38837
ELEKTRO-L 2             
1 41105U 15074A   26188.24653743 -.00000106  00000+0  00000+0 0  9993
2 41105   6.7409  70.2783 0000601 240.8898  48.2797  1.00273381 38702
COSMOS 2513             
1 41121U 15075A   26188.80234266 -.00000123  00000+0  00000+0 0  9998
2 41121   0.0622 103.5527 0002825 341.0914 210.2131  1.00271418 38750
EXPRESS-AMU1            
1 41191U 15082A   26188.72251640  .00000000  00000+0  00000+0 0  9992
2 41191   0.0243  38.1755 0002330  79.0307 104.6709  1.00269819 38475
GAOFEN-4                
1 41194U 15083A   26188.87888464 -.00000320  00000+0  00000+0 0  9998
2 41194   0.4074  83.8625 0004278 117.1717 146.9139  1.00271238 38732
BELINTERSAT-1           
1 41238U 16001A   26188.72554976  .00000122  00000+0  00000+0 0  9999
2 41238   0.0194  91.4113 0001820 338.9161 168.0373  1.00271466 38449
IRNSS-1E                
1 41241U 16003A   26188.57475388 -.00000304  00000+0  00000+0 0  9990
2 41241  33.2771  59.4542 0019202 178.8949   5.8336  1.00269196 38286
EUTELSAT 9B             
1 41310U 16005A   26188.71714159  .00000078  00000+0  00000+0 0  9994
2 41310   0.0187  36.6324 0001097  76.4631  79.7700  1.00275694 38325
SES-9                   
1 41380U 16013A   26188.73681647 -.00000330  00000+0  00000+0 0  9999
2 41380   0.0165 324.9448 0002265 139.1554 195.1540  1.00271807 37648
EUTELSAT 65 WEST A      
1 41382U 16014A   26188.48856750 -.00000261  00000+0  00000+0 0  9996
2 41382   0.0737 308.5066 0002212 157.3577 290.2942  1.00272473 37720
IRNSS-1F                
1 41384U 16015A   26187.93764226  .00000170  00000+0  00000+0 0  9992
2 41384   5.3971  96.3335 0017394 183.7124  14.9319  1.00277260 37862
BEIDOU-2 IGSO-6         
1 41434U 16021A   26177.11016981 -.00000145  00000+0  00000+0 0  9995
2 41434  60.2385  37.9495 0057558 231.0163 137.2672  1.00258926 37578
IRNSS-1G                
1 41469U 16027A   26187.66773700 -.00000321  00000+0  00000+0 0  9995
2 41469   5.2425  97.0252 0005822   7.9551 189.6780  1.00277498 37370
JCSAT-2B                
1 41471U 16028A   26188.74582985 -.00000150  00000+0  00000+0 0  9992
2 41471   0.0182  29.7534 0000822  83.5981 234.8656  1.00269332 37332
THAICOM 8               
1 41552U 16031A   26188.73092309 -.00000106  00000+0  00000+0 0  9992
2 41552   0.0608  38.8180 0003243  32.9636 195.5432  1.00271251 36920
INTELSAT 31 (IS-31)     
1 41581U 16035A   26187.27078995 -.00000136  00000+0  00000+0 0  9994
2 41581   0.0403 211.4121 0000829  55.4380  19.8435  1.00270733 36871
BEIDOU-2 G7             
1 41586U 16037A   26188.87983797 -.00000338  00000+0  00000+0 0  9997
2 41586   1.7678  69.4639 0006423   6.2715 277.3089  1.00266141  7091
ABS-2A (MONGOLSAT-1)    
1 41588U 16038A   26188.80147600  .00000000  00000+0  00000+0 0  9993
2 41588   0.0187  26.3638 0001051  43.7720 218.8784  1.00267406 36915
EUTELSAT 117 WEST B     
1 41589U 16038B   26188.69218147  .00000003  00000+0  00000+0 0  9999
2 41589   0.0043 194.6007 0000098 339.2111 244.0229  1.00274900 36869
BRISAT                  
1 41591U 16039A   26188.67389471  .00000000  00000+0  00000+0 0  9997
2 41591   0.0172   5.9287 0001998 103.9101 208.8981  1.00268930 36818
ECHOSTAR 18             
1 41592U 16039B   26188.20415803 -.00000267  00000+0  00000+0 0  9992
2 41592   0.0191  41.1936 0001392  83.8761 172.2362  1.00268966 36826
MUOS-5                  
1 41622U 16041A   26188.69417483 -.00000096  00000+0  00000+0 0  9998
2 41622   2.1617 302.0264 0199061 260.6206 227.7672  1.00272084 37297
TIANTONG-1 1            
1 41725U 16048A   26188.80024997 -.00000305  00000+0  00000+0 0  9999
2 41725   3.8867  43.5607 0005168  54.7727 216.9209  1.00272583 36477
JCSAT-16                
1 41729U 16050A   26188.81518637  .00000000  00000+0  00000+0 0  9997
2 41729   0.0251  35.8185 0000817  93.1864 234.1922  1.00268738 36276
USA 270                 
1 41744U 16052A   26176.62624484 -.00000284  00000+0  00000+0 0  9995
2 41744   4.2178  77.0981 0000668 157.1810  56.2495  0.99500516 28218
USA 271                 
1 41745U 16052B   26176.75914149 -.00000236  00000+0  00000+0 0  9997
2 41745   4.1909  77.1447 0001955 290.7679 281.9940  0.99833204 28007
INTELSAT 36 (IS-36)     
1 41747U 16053A   26188.80017597 -.00000012  00000+0  00000+0 0  9992
2 41747   0.0091  10.2892 0000975  27.8198 244.1989  1.00285795 36163
INSAT-3DR               
1 41752U 16054A   26188.65872647 -.00000062  00000+0  00000+0 0  9992
2 41752   0.0500  89.4185 0010444 181.3494 325.9940  1.00272227 36020
GSAT-18                 
1 41793U 16060A   26188.72996977 -.00000061  00000+0  00000+0 0  9994
2 41793   0.0154  86.1044 0005520 350.6283 185.7200  1.00271379 35739
SKY MUSTER 2 (NBN1B)    
1 41794U 16060B   26187.88853014 -.00000229  00000+0  00000+0 0  9991
2 41794   0.0159 330.2222 0001569 133.4558 285.8521  1.00272385 35711
HIMAWARI-9              
1 41836U 16064A   26187.95906303  .00000000  00000+0  00000+0 0  9996
2 41836   0.0138  10.3948 0002206 162.3808 238.1863  1.00271383 35407
