OBJECT_NAME,OBJECT_ID,EPOCH,MEAN_MOTION,ECCENTRICITY,INCLINATION,RA_OF_ASC_NODE,ARG_OF_PERICENTER,MEAN_ANOMALY,EPHEMERIS_TYPE,CLASSIFICATION_TYPE,NORAD_CAT_ID,ELEMENT_SET_NO,REV_AT_EPOCH,BSTAR,MEAN_MOTION_DOT,MEAN_MOTION_DDOT
LAOSAT 1,2015-067A,2026-07-07T17:46:45.392160,1.00272481,.0002427,0.0409,198.2976,219.6589,262.9574,0,U,41034,999,3906,0,-.327E-5,0
TELSTAR 12V,2015-068A,2026-07-07T17:05:49.192224,1.00270650,.0002243,0.0185,70.6764,35.3256,61.1281,0,U,41036,999,3883,0,-.104E-5,0
ELEKTRO-L 2,2015-074A,2026-07-07T05:55:00.833952,1.00273381,.00006018,6.7409,70.2783,240.8898,48.2797,0,U,41105,999,3870,0,-.106E-5,0
COSMOS 2513,2015-075A,2026-07-07T19:15:22.405824,1.00271418,.0002825,0.0622,103.5527,341.0914,210.2131,0,U,41121,999,3875,0,-.123E-5,0
EXPRESS-AMU1,2015-082A,2026-07-07T17:20:25.416960,1.00269819,.000233,0.0243,38.1755,79.0307,104.6709,0,U,41191,999,3847,0,0,0
GAOFEN-4,2015-083A,2026-07-07T21:05:35.632896,1.00271238,.0004278,0.4074,83.8625,117.1717,146.9139,0,U,41194,999,3873,0,-.32E-5,0
BELINTERSAT-1,2016-001A,2026-07-07T17:24:47.499264,1.00271466,.000182,0.0194,91.4113,338.9161,168.0373,0,U,41238,999,3844,0,.122E-5,0
IRNSS-1E,2016-003A,2026-07-07T13:47:38.735232,1.00269196,.0019202,33.2771,59.4542,178.8949,5.8336,0,U,41241,999,3828,0,-.304E-5,0
EUTELSAT 9B,2016-005A,2026-07-07T17:12:41.033376,1.00275694,.0001097,0.0187,36.6324,76.4631,79.7700,0,U,41310,999,3832,0,.78E-6,0
SES-9,2016-013A,2026-07-07T17:41:00.943008,1.00271807,.0002265,0.0165,324.9448,139.1554,195.1540,0,U,41380,999,3764,0,-.33E-5,0
EUTELSAT 65 WEST A,2016-014A,2026-07-07T11:43:32.232000,1.00272473,.00022124,0.0737,308.5066,157.3577,290.2942,0,U,41382,999,3772,0,-.261E-5,0
IRNSS-1F,2016-015A,2026-07-06T22:30:12.291264,1.00277260,.00173943,5.3971,96.3335,183.7124,14.9319,0,U,41384,999,3786,0,.17E-5,0
BEIDOU-2 IGSO-6,2016-021A,2026-06-26T02:38:38.671584,1.00258926,.0057558,60.2385,37.9495,231.0163,137.2672,0,U,41434,999,3757,0,-.145E-5,0
IRNSS-1G,2016-027A,2026-07-06T16:01:32.476800,1.00277498,.00058223,5.2425,97.0252,7.9551,189.6780,0,U,41469,999,3737,0,-.321E-5,0
JCSAT-2B,2016-028A,2026-07-07T17:53:59.699040,1.00269332,.0000822,0.0182,29.7534,83.5981,234.8656,0,U,41471,999,3733,0,-.15E-5,0
THAICOM 8,2016-031A,2026-07-07T17:32:31.754976,1.00271251,.0003243,0.0608,38.8180,32.9636,195.5432,0,U,41552,999,3692,0,-.106E-5,0
INTELSAT 31 (IS-31),2016-035A,2026-07-06T06:29:56.251680,1.00270733,.00008295,0.0403,211.4121,55.4380,19.8435,0,U,41581,999,3687,0,-.136E-5,0
BEIDOU-2 G7,2016-037A,2026-07-07T21:06:58.000608,1.00266141,.0006423,1.7678,69.4639,6.2715,277.3089,0,U,41586,999,709,0,-.338E-5,0
ABS-2A (MONGOLSAT-1),2016-038A,2026-07-07T19:14:07.526400,1.00267406,.0001051,0.0187,26.3638,43.7720,218.8784,0,U,41588,999,3691,0,0,0
EUTELSAT 117 WEST B,2016-038B,2026-07-07T16:36:44.479008,1.00274900,.0000098,0.0043,194.6007,339.2111,244.0229,0,U,41589,999,3686,0,.3E-7,0
BRISAT,2016-039A,2026-07-07T16:10:24.502944,1.00268930,.0001998,0.0172,5.9287,103.9101,208.8981,0,U,41591,999,3681,0,0,0
ECHOSTAR 18,2016-039B,2026-07-07T04:53:59.253792,1.00268966,.00013923,0.0191,41.1936,83.8761,172.2362,0,U,41592,999,3682,0,-.267E-5,0
MUOS-5,2016-041A,2026-07-07T16:39:36.705312,1.00272084,.0199061,2.1617,302.0264,260.6206,227.7672,0,U,41622,999,3729,0,-.96E-6,0
TIANTONG-1 1,2016-048A,2026-07-07T19:12:21.597408,1.00272583,.0005168,3.8867,43.5607,54.7727,216.9209,0,U,41725,999,3647,0,-.305E-5,0
JCSAT-16,2016-050A,2026-07-07T19:33:52.102368,1.00268738,.0000817,0.0251,35.8185,93.1864,234.1922,0,U,41729,999,3627,0,0,0
USA 270,2016-052A,2026-06-25T15:01:47.554176,0.99500516,.0000668,4.2178,77.0981,157.1810,56.2495,0,U,41744,999,2821,0,-.284E-5,0
USA 271,2016-052B,2026-06-25T18:13:09.824736,0.99833204,.0001955,4.1909,77.1447,290.7679,281.9940,0,U,41745,999,2800,0,-.236E-5,0
INTELSAT 36 (IS-36),2016-053A,2026-07-07T19:12:15.203808,1.00285795,.0000975,0.0091,10.2892,27.8198,244.1989,0,U,41747,999,3616,0,-.12E-6,0
INSAT-3DR,2016-054A,2026-07-07T15:48:33.967008,1.00272227,.0010444,0.0500,89.4185,181.3494,325.9940,0,U,41752,999,3602,0,-.62E-6,0
GSAT-18,2016-060A,2026-07-07T17:31:09.388128,1.00271379,.000552,0.0154,86.1044,350.6283,185.7200,0,U,41793,999,3573,0,-.61E-6,0
SKY MUSTER 2 (NBN1B),2016-060B,2026-07-06T21:19:29.004096,1.00272385,.00015694,0.0159,330.2222,133.4558,285.8521,0,U,41794,999,3571,0,-.229E-5,0
HIMAWARI-9,2016-064A,2026-07-06T23:01:03.045792,1.00271383,.00022065,0.0138,10.3948,162.3808,238.1863,0,U,41836,999,3540,0,0,0
